STARLINK-38078          
1 69744U 26150F   26190.83335647 -.00046075  00000+0 -24082-3 0  9993
2 69744  97.2845  28.8968 0001064 101.8354 301.7223 15.80838852  2436
STARLINK-38047          
1 69745U 26150G   26190.83335647 -.00042073  00000+0 -21962-3 0  9992
2 69745  97.2844  28.8990 0001980  77.5099 330.6037 15.80848371  2434
STARLINK-38046          
1 69746U 26150H   26190.83335647 -.00024162  00000+0 -12563-3 0  9999
2 69746  97.2848  28.9046 0001312  93.8552 325.1821 15.80837323  2431
STARLINK-38067          
1 69747U 26150J   26190.83335647 -.00532445  00000+0 -29260-2 0  9999
2 69747  97.2846  28.9062 0001275  95.9305 328.8789 15.81007885  2431
STARLINK-37988          
1 69748U 26150K   26190.83335647  .00043433  00000+0  22660-3 0  9990
2 69748  97.2845  28.9070 0000752  97.5284 330.2281 15.80793432  2436
STARLINK-37987          
1 69749U 26150L   26190.83335647 -.00056298  00000+0 -29453-3 0  9993
2 69749  97.2848  28.9103 0001475  95.6433 337.0755 15.80854868  2437
STARLINK-38037          
1 69750U 26150M   26190.83335647 -.00036864  00000+0 -19233-3 0  9997
2 69750  97.2848  28.9161 0001114 109.8746 335.1695 15.80838017  2438
STARLINK-38049          
1 69751U 26150N   26190.83335647  .00018453  00000+0  96932-4 0  9992
2 69751  97.2847  28.9174 0001116 109.2155 341.6255 15.80803133  2437
STARLINK-38029          
1 69752U 26150P   26190.83335647 -.00021302  00000+0 -11070-3 0  9991
2 69752  97.2853  28.9320 0000880  98.1583  25.3875 15.80824122  2431
STARLINK-37965          
1 69753U 26150Q   26190.83335647 -.00024806  00000+0 -12907-3 0  9994
2 69753  97.2851  28.9322 0000866  98.5016  25.9845 15.80826801  2430
STARLINK-38048          
1 69754U 26150R   26190.83335647 -.00025307  00000+0 -13170-3 0  9995
2 69754  97.2851  28.9329 0000884  92.2025  33.4544 15.80827617  2435
STARLINK-38006          
1 69755U 26150S   26190.83335647 -.00024009  00000+0 -12491-3 0  9999
2 69755  97.2855  28.9391 0000869 111.3624  29.8987 15.80823464  2436
STARLINK-38036          
1 69756U 26150T   26190.83335647 -.00036190  00000+0 -18899-3 0  9992
2 69756  97.2861  28.9429 0000684  98.8147  50.1391 15.80815430  2430
STARLINK-38058          
1 69757U 26150U   26190.83335647 -.00027380  00000+0 -14265-3 0  9997
2 69757  97.2860  28.9434 0000728  85.0954  65.2986 15.80816176  2434
STARLINK-38066          
1 69758U 26150V   26190.83335647 -.00042356  00000+0 -22144-3 0  9993
2 69758  97.2862  28.9434 0000620  92.3960  58.8490 15.80818580  2435
STARLINK-38035          
1 69759U 26150W   26190.83335647 -.00025184  00000+0 -13115-3 0  9992
2 69759  97.2861  28.9440 0000782  91.7834  60.1664 15.80812006  2430
STARLINK-38056          
1 69760U 26150X   26190.83335647 -.01065233  00000+0 -60597-2 0  9999
2 69760  97.2865  28.9524 0001403  81.2931  89.8932 15.81595203  2436
STARLINK-38069          
1 69761U 26150Y   26190.83335647 -.02322771  00000+0 -12510-1 0  9995
2 69761  97.2871  28.9605 0001846  88.3891 101.0147 15.83141559  2436
STARLINK-38019          
1 69762U 26150Z   26190.83335647 -.02336954  00000+0 -12593-1 0  9995
2 69762  97.2871  28.9610 0001783  86.8220 104.0804 15.83152355  2431
KUIPER-00258            
1 69763U 26151A   26190.83335647  .00038050  00000+0  10888-2 0  9995
2 69763  51.8668 206.4098 0012251 152.8417  33.5241 15.35514159  1553
KUIPER-00526            
1 69764U 26151B   26190.83335647  .00025509  00000+0  69662-3 0  9996
2 69764  51.8764 206.3136 0006209 123.7481 108.9921 15.37232104  1301
KUIPER-00558            
1 69765U 26151C   26190.83335647  .00024130  00000+0  67030-3 0  9993
2 69765  51.8755 206.3398 0007789 134.2243  85.9725 15.36725107  1797
KUIPER-00569            
1 69766U 26151D   26190.83335647  .00025754  00000+0  69988-3 0  9991
2 69766  51.8788 206.3000 0005245 122.1541 115.9540 15.37383926  1302
KUIPER-00589            
1 69767U 26151E   26190.83335647  .00025629  00000+0  69778-3 0  9990
2 69767  51.8755 206.3092 0005544 127.3170 108.0201 15.37327287  1827
KUIPER-00598            
1 69768U 26151F   26190.83335647  .00016309  00000+0  47454-3 0  9993
2 69768  51.8635 206.3994 0010162 150.4689  40.4590 15.35522850  1731
KUIPER-00604            
1 69769U 26151G   26190.83335647  .00026834  00000+0  71106-3 0  9999
2 69769  51.8801 206.2566 0002717  94.4816 163.3034 15.38148417  2147
KUIPER-00609            
1 69770U 26151H   26190.83335647  .00027562  00000+0  72076-3 0  9997
2 69770  51.8805 206.2319 0000842  40.0855 229.3889 15.38543054  1300
KUIPER-00611            
1 69771U 26151J   26190.83335647  .00027384  00000+0  72052-3 0  9994
2 69771  51.8807 206.2401 0001583  94.0152 169.5577 15.38356807  1304
KUIPER-00612            
1 69772U 26151K   26190.83335647  .00025891  00000+0  69318-3 0  9997
2 69772  51.8793 206.2754 0003748 101.3903 148.3663 15.37848251  1300
KUIPER-00614            
1 69773U 26151L   26190.83335647  .00026775  00000+0  71152-3 0  9999
2 69773  51.8805 206.2597 0002783 109.6033 145.8519 15.38062912  1724
