OBJECT_NAME,OBJECT_ID,EPOCH,MEAN_MOTION,ECCENTRICITY,INCLINATION,RA_OF_ASC_NODE,ARG_OF_PERICENTER,MEAN_ANOMALY,EPHEMERIS_TYPE,CLASSIFICATION_TYPE,NORAD_CAT_ID,ELEMENT_SET_NO,REV_AT_EPOCH,BSTAR,MEAN_MOTION_DOT,MEAN_MOTION_DDOT
STARLINK-38078,2026-150F,2026-07-09T20:00:01.999008,15.80838852,.0001064,97.2845,28.8968,101.8354,301.7223,0,U,69744,999,243,-.24082E-3,-.46075E-3,0
STARLINK-38047,2026-150G,2026-07-09T20:00:01.999008,15.80848371,.000198,97.2844,28.8990,77.5099,330.6037,0,U,69745,999,243,-.21962E-3,-.42073E-3,0
STARLINK-38046,2026-150H,2026-07-09T20:00:01.999008,15.80837323,.0001312,97.2848,28.9046,93.8552,325.1821,0,U,69746,999,243,-.12563E-3,-.24162E-3,0
STARLINK-38067,2026-150J,2026-07-09T20:00:01.999008,15.81007885,.0001275,97.2846,28.9062,95.9305,328.8789,0,U,69747,999,243,-.2926E-2,-.532445E-2,0
STARLINK-37988,2026-150K,2026-07-09T20:00:01.999008,15.80793432,.0000752,97.2845,28.9070,97.5284,330.2281,0,U,69748,999,243,.2266E-3,.43433E-3,0
STARLINK-37987,2026-150L,2026-07-09T20:00:01.999008,15.80854868,.0001475,97.2848,28.9103,95.6433,337.0755,0,U,69749,999,243,-.29453E-3,-.56298E-3,0
STARLINK-38037,2026-150M,2026-07-09T20:00:01.999008,15.80838017,.0001114,97.2848,28.9161,109.8746,335.1695,0,U,69750,999,243,-.19233E-3,-.36864E-3,0
STARLINK-38049,2026-150N,2026-07-09T20:00:01.999008,15.80803133,.0001116,97.2847,28.9174,109.2155,341.6255,0,U,69751,999,243,.96932E-4,.18453E-3,0
STARLINK-38029,2026-150P,2026-07-09T20:00:01.999008,15.80824122,.000088,97.2853,28.9320,98.1583,25.3875,0,U,69752,999,243,-.1107E-3,-.21302E-3,0
STARLINK-37965,2026-150Q,2026-07-09T20:00:01.999008,15.80826801,.0000866,97.2851,28.9322,98.5016,25.9845,0,U,69753,999,243,-.12907E-3,-.24806E-3,0
STARLINK-38048,2026-150R,2026-07-09T20:00:01.999008,15.80827617,.0000884,97.2851,28.9329,92.2025,33.4544,0,U,69754,999,243,-.1317E-3,-.25307E-3,0
STARLINK-38006,2026-150S,2026-07-09T20:00:01.999008,15.80823464,.0000869,97.2855,28.9391,111.3624,29.8987,0,U,69755,999,243,-.12491E-3,-.24009E-3,0
STARLINK-38036,2026-150T,2026-07-09T20:00:01.999008,15.80815430,.0000684,97.2861,28.9429,98.8147,50.1391,0,U,69756,999,243,-.18899E-3,-.3619E-3,0
STARLINK-38058,2026-150U,2026-07-09T20:00:01.999008,15.80816176,.0000728,97.2860,28.9434,85.0954,65.2986,0,U,69757,999,243,-.14265E-3,-.2738E-3,0
STARLINK-38066,2026-150V,2026-07-09T20:00:01.999008,15.80818580,.000062,97.2862,28.9434,92.3960,58.8490,0,U,69758,999,243,-.22144E-3,-.42356E-3,0
STARLINK-38035,2026-150W,2026-07-09T20:00:01.999008,15.80812006,.0000782,97.2861,28.9440,91.7834,60.1664,0,U,69759,999,243,-.13115E-3,-.25184E-3,0
STARLINK-38056,2026-150X,2026-07-09T20:00:01.999008,15.81595203,.0001403,97.2865,28.9524,81.2931,89.8932,0,U,69760,999,243,-.60597E-2,-.1065233E-1,0
STARLINK-38069,2026-150Y,2026-07-09T20:00:01.999008,15.83141559,.0001846,97.2871,28.9605,88.3891,101.0147,0,U,69761,999,243,-.1251E-1,-.2322771E-1,0
STARLINK-38019,2026-150Z,2026-07-09T20:00:01.999008,15.83152355,.0001783,97.2871,28.9610,86.8220,104.0804,0,U,69762,999,243,-.12593E-1,-.2336954E-1,0
KUIPER-00258,2026-151A,2026-07-09T20:00:01.999008,15.35514159,.0012251,51.8668,206.4098,152.8417,33.5241,0,U,69763,999,155,.10888E-2,.3805E-3,0
KUIPER-00526,2026-151B,2026-07-09T20:00:01.999008,15.37232104,.0006209,51.8764,206.3136,123.7481,108.9921,0,U,69764,999,130,.69662E-3,.25509E-3,0
KUIPER-00558,2026-151C,2026-07-09T20:00:01.999008,15.36725107,.0007789,51.8755,206.3398,134.2243,85.9725,0,U,69765,999,179,.6703E-3,.2413E-3,0
KUIPER-00569,2026-151D,2026-07-09T20:00:01.999008,15.37383926,.0005245,51.8788,206.3000,122.1541,115.9540,0,U,69766,999,130,.69988E-3,.25754E-3,0
KUIPER-00589,2026-151E,2026-07-09T20:00:01.999008,15.37327287,.0005544,51.8755,206.3092,127.3170,108.0201,0,U,69767,999,182,.69778E-3,.25629E-3,0
KUIPER-00598,2026-151F,2026-07-09T20:00:01.999008,15.35522850,.0010162,51.8635,206.3994,150.4689,40.4590,0,U,69768,999,173,.47454E-3,.16309E-3,0
KUIPER-00604,2026-151G,2026-07-09T20:00:01.999008,15.38148417,.0002717,51.8801,206.2566,94.4816,163.3034,0,U,69769,999,214,.71106E-3,.26834E-3,0
KUIPER-00609,2026-151H,2026-07-09T20:00:01.999008,15.38543054,.0000842,51.8805,206.2319,40.0855,229.3889,0,U,69770,999,130,.72076E-3,.27562E-3,0
KUIPER-00611,2026-151J,2026-07-09T20:00:01.999008,15.38356807,.0001583,51.8807,206.2401,94.0152,169.5577,0,U,69771,999,130,.72052E-3,.27384E-3,0
KUIPER-00612,2026-151K,2026-07-09T20:00:01.999008,15.37848251,.0003748,51.8793,206.2754,101.3903,148.3663,0,U,69772,999,130,.69318E-3,.25891E-3,0
KUIPER-00614,2026-151L,2026-07-09T20:00:01.999008,15.38062912,.0002783,51.8805,206.2597,109.6033,145.8519,0,U,69773,999,172,.71152E-3,.26775E-3,0
